0 SAR LUPE 2
1 31797U 07030A   26161.56629402  .00030058  00000-0  55560-3 0  9997
2 31797  98.1024 265.1852 0007430 147.2973 212.8737 15.48994597 55910
0 SAPPHIRE
1 39088U 13009C   26161.60865317  .00000100  00000-0  49960-4 0  9996
2 39088  98.4259 341.2208 0009975 268.6063  91.3980 14.35238707695637
0 PRAETORIAN SDA_602
1 65565U 25203A   26161.59147798  .00000044  00000-0  28934-4 0  9993
2 65565  81.3035  16.8792 0005442 202.7606 157.3310 13.84342190 37780
0 PRAETORIAN SDA_603
1 65566U 25203B   26161.61608061  .00000187  00000-0  15808-3 0  9995
2 65566  81.3039  16.7688 0009006 205.9128 154.1578 13.83904811 37797
0 PRAETORIAN SDA_604
1 65567U 25203C   26161.63172603  .00000086  00000-0  67687-4 0  9997
2 65567  81.3057  17.1561 0004931 210.8093 149.2774 13.83047076 37773
0 PRAETORIAN SDA_605
1 65568U 25203D   26161.59888885  .00000053  00000-0  37673-4 0  9995
2 65568  81.3022  16.8558 0007750 201.3738 158.7096 13.83433800 37788
0 PRAETORIAN SDA_606
1 65569U 25203E   26161.58130882  .00000055  00000-0  39618-4 0  9995
2 65569  81.3058  17.0911 0005360 199.8119 160.2830 13.83406715 37771
0 PRAETORIAN SDA_607
1 65570U 25203F   26161.59352398  .00000204  00000-0  17206-3 0  9990
2 65570  81.3040  16.7530 0008292 206.2191 153.8547 13.84283879 37797
0 PRAETORIAN SDA_608
1 65571U 25203G   26161.64100085  .00000066  00000-0  49285-4 0  9990
2 65571  81.3010  16.8685 0005463 209.6939 150.3908 13.83816382 37783
0 PRAETORIAN SDA_609
1 65572U 25203H   26161.64783116  .00000258  00000-0  22068-3 0  9995
2 65572  81.3054  16.8464 0006387 202.8746 157.2128 13.84285086 37797
0 PRAETORIAN SDA_610
1 65573U 25203J   26161.62092173  .00000054  00000-0  38158-4 0  9992
2 65573  81.3011  16.8452 0006117 207.1249 152.9589 13.83851491 37785
0 PRAETORIAN SDA_611
1 65574U 25203K   26161.61912849  .00000604  00000-0  53907-3 0  9992
2 65574  81.3023  17.0078 0004992 213.9437 146.1401 13.83309257 37774
0 PRAETORIAN SDA_612
1 65575U 25203L   26161.61693778  .00000270  00000-0  22799-3 0  9994
2 65575  81.3030  16.6119 0008739 205.2031 154.8701 13.85038533 37802
0 PRAETORIAN SDA_613
1 65576U 25203M   26161.62329232  .00000056  00000-0  40612-4 0  9994
2 65576  81.3003  16.9952 0005216 202.5680 157.5248 13.82764623 37773
0 PRAETORIAN SDA_614
1 65577U 25203N   26161.60487768  .00000047  00000-0  31554-4 0  9997
2 65577  81.3018  16.6990 0006672 202.2068 157.8801 13.84777843 37805
0 PRAETORIAN SDA_615
1 65578U 25203P   26161.58013912  .00000222  00000-0  18736-3 0  9992
2 65578  81.3029  16.6804 0008599 203.6701 156.4061 13.84436227 37790
0 PRAETORIAN SDA_616
1 65579U 25203Q   26161.61814549  .00000228  00000-0  19749-3 0  9993
2 65579  81.3065  17.1492 0004920 211.3706 148.7157 13.83267278 37770
0 PRAETORIAN SDA_617
1 65580U 25203R   26161.63919046  .00000042  00000-0  27757-4 0  9998
2 65580  81.3040  16.9612 0006915 202.5041 157.5813 13.83149935 37783
0 PRAETORIAN SDA_618
1 65581U 25203S   26161.61956051  .00000280  00000-0  23900-3 0  9993
2 65581  81.3024  16.5775 0009253 206.2063 153.8627 13.84669170 37809
0 PRAETORIAN SDA_619
1 65582U 25203T   26161.57910831  .00000187  00000-0  15799-3 0  9998
2 65582  81.3050  16.9015 0007690 204.2680 155.8115 13.83805536 38415
0 PRAETORIAN SDA_620
1 65583U 25203U   26161.60620310  .00000146  00000-0  12195-3 0  9995
2 65583  81.3034  16.8959 0007132 199.6956 160.3926 13.83617785 37785
0 PRAETORIAN SDA_621
1 65584U 25203V   26161.58086059  .00000068  00000-0  50559-4 0  9999
2 65584  81.3025  16.8402 0007001 197.0546 163.0377 13.83800833 37789
0 PRAETORIAN SDA_601
1 65585U 25203X   26161.62080614  .00000385  00000-0  34119-3 0  9991
2 65585  81.3050  17.0925 0004915 215.2005 144.8827 13.83166989 37778
